[{"OBJECT_NAME":"STARLINK-32101","OBJECT_ID":"2024-144Y","EPOCH":"2026-03-09T16:37:27.229728","MEAN_MOTION":15.30192398,"ECCENTRICITY":0.00011867,"INCLINATION":53.1604,"RA_OF_ASC_NODE":216.8305,"ARG_OF_PERICENTER":101.4047,"MEAN_ANOMALY":258.7088,"EPHEMERIS_TYPE":0,"CLASSIFICATION_TYPE":"U","NORAD_CAT_ID":60447,"ELEMENT_SET_NO":999,"REV_AT_EPOCH":8931,"BSTAR":5.3529537e-5,"MEAN_MOTION_DOT":1.226e-5,"MEAN_MOTION_DDOT":0},{"OBJECT_NAME":"ELECTRON KICK STAGE R\/B","OBJECT_ID":"2022-147B","EPOCH":"2026-03-09T22:28:20.187264","MEAN_MOTION":15.28920172,"ECCENTRICITY":0.00095089,"INCLINATION":97.642,"RA_OF_ASC_NODE":85.1135,"ARG_OF_PERICENTER":110.4683,"MEAN_ANOMALY":249.7578,"EPHEMERIS_TYPE":0,"CLASSIFICATION_TYPE":"U","NORAD_CAT_ID":54228,"ELEMENT_SET_NO":999,"REV_AT_EPOCH":18390,"BSTAR":0.00083201931,"MEAN_MOTION_DOT":0.00023374,"MEAN_MOTION_DDOT":0}]
